{
    "links": {
        "self": "http://www.neowsapp.com/rest/v1/neo/3478659?api_key=iIulBulltgU6a56xZRHN4H3l9WmuAYTsLGpBGhQ2"
    },
    "id": "3478659",
    "neo_reference_id": "3478659",
    "name": "(2009 WH104)",
    "designation": "2009 WH104",
    "nasa_jpl_url": "http://ssd.jpl.nasa.gov/sbdb.cgi?sstr=3478659",
    "absolute_magnitude_h": 21.1,
    "estimated_diameter": {
        "kilometers": {
            "estimated_diameter_min": 0.160160338,
            "estimated_diameter_max": 0.358129403
        },
        "meters": {
            "estimated_diameter_min": 160.1603379786,
            "estimated_diameter_max": 358.1294030194
        },
        "miles": {
            "estimated_diameter_min": 0.0995189894,
            "estimated_diameter_max": 0.2225312253
        },
        "feet": {
            "estimated_diameter_min": 525.4604432536,
            "estimated_diameter_max": 1174.9652706022
        }
    },
    "is_potentially_hazardous_asteroid": false,
    "close_approach_data": [
        {
            "close_approach_date": "2009-10-24",
            "close_approach_date_full": "2009-Oct-24 15:09",
            "epoch_date_close_approach": 1256396940000,
            "relative_velocity": {
                "kilometers_per_second": "9.2029305172",
                "kilometers_per_hour": "33130.5498619951",
                "miles_per_hour": "20586.0352739714"
            },
            "miss_distance": {
                "astronomical": "0.2767391397",
                "lunar": "107.6515253433",
                "kilometers": "41399585.844752439",
                "miles": "25724509.7825600982"
            },
            "orbiting_body": "Earth"
        }
    ],
    "orbital_data": {
        "orbit_id": "13",
        "orbit_determination_date": "2017-04-06 08:58:55",
        "first_observation_date": "2009-11-24",
        "last_observation_date": "2009-12-19",
        "data_arc_in_days": 25,
        "observations_used": 38,
        "orbit_uncertainty": "7",
        "minimum_orbit_intersection": ".255341",
        "jupiter_tisserand_invariant": "3.141",
        "epoch_osculation": "2459000.5",
        "eccentricity": ".554008066315823",
        "semi_major_axis": "2.579216379705368",
        "inclination": "16.50235285984485",
        "ascending_node_longitude": "242.9344469728859",
        "orbital_period": "1512.969224766731",
        "perihelion_distance": "1.1503097005747",
        "perihelion_argument": "123.2045899544924",
        "aphelion_distance": "4.008123058836037",
        "perihelion_time": "2459648.688576642299",
        "mean_anomaly": "205.7682524063204",
        "mean_motion": ".237942711660579",
        "equinox": "J2000",
        "orbit_class": {
            "orbit_class_type": "AMO",
            "orbit_class_description": "Near-Earth asteroid orbits similar to that of 1221 Amor",
            "orbit_class_range": "1.017 AU < q (perihelion) < 1.3 AU"
        }
    },
    "is_sentry_object": false
}